[{"TLE1":"1     5U 58002B   20287.20333880 -.00000016  00000-0 -22483-4 0  9998","TLE2":"2     5  34.2443 225.5254 1845686 162.2516 205.2356 10.84869164218149"}]